sat26025
1 26025U 91068AL  20046.83252249 -.00000011  00000-0 -13271-3 0  9997
2 26025  82.7342   7.7738 0252948 279.2427 102.8015 12.34825123292627
